{"type": "FeatureCollection", "features": [ {"type": "Feature", "properties": {"norad_id": 30613, "name": "FENGYUN 1C DEB", "group": "fengyun-1c-debris", "lat": 6.212538567241788, "lon": -57.51639932925771, "alt_km": 483.54252767440266, "timestamp": "2025-12-26T11:25:45.471786+00:00", "meta": {"OBJECT_NAME": "FENGYUN 1C DEB", "OBJECT_ID": "1999-025AMU", "EPOCH": "2025-12-25T20:27:10.587168", "MEAN_MOTION": 15.1987515, "ECCENTRICITY": 0.00599436, "INCLINATION": 98.3065, "RA_OF_ASC_NODE": 120.8858, "ARG_OF_PERICENTER": 121.9379, "MEAN_ANOMALY": 238.7702, "EPHEMERIS_TYPE": 0, "CLASSIFICATION_TYPE": "U", "NORAD_CAT_ID": 30613, "ELEMENT_SET_NO": 999, "REV_AT_EPOCH": 99595, "BSTAR": 0.004500504, "MEAN_MOTION_DOT": 0.00102512, "MEAN_MOTION_DDOT": 0}, "tle": {"line1": "1 30613U 99025AMU 25359.85220587  .00102512  00000+0  45005-2 0  9995", "line2": "2 30613  98.3065 120.8858 0059943 121.9379 238.7702 15.19875150995958"}}, "geometry": {"type": "Point", "coordinates": [-57.51639932925771, 6.212538567241788]}}, {"type": "Feature", "properties": {"norad_id": 30616, "name": "FENGYUN 1C DEB", "group": "fengyun-1c-debris", "lat": -68.30548128816936, "lon": -145.85831543085777, "alt_km": 876.9833737937779, "timestamp": "2025-12-26T11:25:45.471796+00:00", "meta": {"OBJECT_NAME": "FENGYUN 1C DEB", "OBJECT_ID": "1999-025AMX", "EPOCH": "2025-12-25T14:24:23.518080", "MEAN_MOTION": 13.36050195, "ECCENTRICITY": 0.0381656, "INCLINATION": 98.6413, "RA_OF_ASC_NODE": 55.869, "ARG_OF_PERICENTER": 223.7679, "MEAN_ANOMALY": 133.261, "EPHEMERIS_TYPE": 0, "CLASSIFICATION_TYPE": "U", "NORAD_CAT_ID": 30616, "ELEMENT_SET_NO": 999, "REV_AT_EPOCH": 91872, "BSTAR": 0.0017371, "MEAN_MOTION_DOT": 1.313e-05, "MEAN_MOTION_DDOT": 0}, "tle": {"line1": "1 30616U 99025AMX 25359.60027220  .00001313  00000+0  17371-2 0  9992", "line2": "2 30616  98.6413  55.8690 0381656 223.7679 133.2610 13.36050195918723"}}, "geometry": {"type": "Point", "coordinates": [-145.85831543085777, -68.30548128816936]}}, {"type": "Feature", "properties": {"norad_id": 30619, "name": "FENGYUN 1C DEB", "group": "fengyun-1c-debris", "lat": -9.630568647112225, "lon": 24.42959022380315, "alt_km": 621.103982906634, "timestamp": "2025-12-26T11:25:45.471807+00:00", "meta": {"OBJECT_NAME": "FENGYUN 1C DEB", "OBJECT_ID": "1999-025ANA", "EPOCH": "2025-12-25T13:48:38.766816", "MEAN_MOTION": 14.41126958, "ECCENTRICITY": 0.0215224, "INCLINATION": 98.2946, "RA_OF_ASC_NODE": 22.1363, "ARG_OF_PERICENTER": 19.8397, "MEAN_ANOMALY": 341.1004, "EPHEMERIS_TYPE": 0, "CLASSIFICATION_TYPE": "U", "NORAD_CAT_ID": 30619, "ELEMENT_SET_NO": 999, "REV_AT_EPOCH": 99134, "BSTAR": 0.00032675, "MEAN_MOTION_DOT": 1.336e-05, "MEAN_MOTION_DDOT": 0}, "tle": {"line1": "1 30619U 99025ANA 25359.57544869  .00001336  00000+0  32675-3 0  9994", "line2": "2 30619  98.2946  22.1363 0215224  19.8397 341.1004 14.41126958991349"}}, "geometry": {"type": "Point", "coordinates": [24.42959022380315, -9.630568647112225]}}, {"type": "Feature", "properties": {"norad_id": 30621, "name": "FENGYUN 1C DEB", "group": "fengyun-1c-debris", "lat": -62.07109084418545, "lon": -39.9033564809112, "alt_km": 800.0584348881775, "timestamp": "2025-12-26T11:25:45.471816+00:00", "meta": {"OBJECT_NAME": "FENGYUN 1C DEB", "OBJECT_ID": "1999-025ANC", "EPOCH": "2025-12-24T07:27:03.076992", "MEAN_MOTION": 14.03900271, "ECCENTRICITY": 0.01363988, "INCLINATION": 98.6975, "RA_OF_ASC_NODE": 301.2402, "ARG_OF_PERICENTER": 274.3159, "MEAN_ANOMALY": 241.7775, "EPHEMERIS_TYPE": 0, "CLASSIFICATION_TYPE": "U", "NORAD_CAT_ID": 30621, "ELEMENT_SET_NO": 999, "REV_AT_EPOCH": 95752, "BSTAR": 0.0022507606, "MEAN_MOTION_DOT": 3.816e-05, "MEAN_MOTION_DDOT": 0}, "tle": {"line1": "1 30621U 99025ANC 25358.31045228  .00003816  00000+0  22508-2 0  9991", "line2": "2 30621  98.6975 301.2402 0136398 274.3159 241.7775 14.03900271957529"}}, "geometry": {"type": "Point", "coordinates": [-39.9033564809112, -62.07109084418545]}}, {"type": "Feature", "properties": {"norad_id": 30622, "name": "FENGYUN 1C DEB", "group": "fengyun-1c-debris", "lat": 72.85386289461042, "lon": -125.27239060524244, "alt_km": 810.0423269215853, "timestamp": "2025-12-26T11:25:45.471825+00:00", "meta": {"OBJECT_NAME": "FENGYUN 1C DEB", "OBJECT_ID": "1999-025AND", "EPOCH": "2025-12-23T20:00:58.826016", "MEAN_MOTION": 14.31388151, "ECCENTRICITY": 0.0072428, "INCLINATION": 101.0013, "RA_OF_ASC_NODE": 12.3003, "ARG_OF_PERICENTER": 344.4391, "MEAN_ANOMALY": 189.7638, "EPHEMERIS_TYPE": 0, "CLASSIFICATION_TYPE": "U", "NORAD_CAT_ID": 30622, "ELEMENT_SET_NO": 999, "REV_AT_EPOCH": 68956, "BSTAR": 0.0030539544, "MEAN_MOTION_DOT": 8.28e-05, "MEAN_MOTION_DDOT": 0}, "tle": {"line1": "1 30622U 99025AND 25357.83401419  .00008280  00000+0  30540-2 0  9991", "line2": "2 30622 101.0013  12.3003 0072428 344.4391 189.7638 14.31388151689562"}}, "geometry": {"type": "Point", "coordinates": [-125.27239060524244, 72.85386289461042]}}, {"type": "Feature", "properties": {"norad_id": 30623, "name": "FENGYUN 1C DEB", "group": "fengyun-1c-debris", "lat": -58.60259173089977, "lon": -168.01633101516265, "alt_km": 1359.234816957758, "timestamp": "2025-12-26T11:25:45.471834+00:00", "meta": {"OBJECT_NAME": "FENGYUN 1C DEB", "OBJECT_ID": "1999-025ANE", "EPOCH": "2025-12-25T00:12:33.173856", "MEAN_MOTION": 13.29348403, "ECCENTRICITY": 0.04037335, "INCLINATION": 98.8229, "RA_OF_ASC_NODE": 175.9837, "ARG_OF_PERICENTER": 77.5276, "MEAN_ANOMALY": 46.8647, "EPHEMERIS_TYPE": 0, "CLASSIFICATION_TYPE": "U", "NORAD_CAT_ID": 30623, "ELEMENT_SET_NO": 999, "REV_AT_EPOCH": 91379, "BSTAR": 0.00055414261, "MEAN_MOTION_DOT": 3.69e-06, "MEAN_MOTION_DDOT": 0}, "tle": {"line1": "1 30623U 99025ANE 25359.00871729  .00000369  00000+0  55414-3 0  9996", "line2": "2 30623  98.8229 175.9837 0403733  77.5276  46.8647 13.29348403913799"}}, "geometry": {"type": "Point", "coordinates": [-168.01633101516265, -58.60259173089977]}}, {"type": "Feature", "properties": {"norad_id": 30624, "name": "FENGYUN 1C DEB", "group": "fengyun-1c-debris", "lat": 51.25953732236975, "lon": -85.23966313705895, "alt_km": 682.5591153567802, "timestamp": "2025-12-26T11:25:45.471843+00:00", "meta": {"OBJECT_NAME": "FENGYUN 1C DEB", "OBJECT_ID": "1999-025ANF", "EPOCH": "2025-12-26T04:16:43.874112", "MEAN_MOTION": 14.62901245, "ECCENTRICITY": 0.0023638, "INCLINATION": 98.8856, "RA_OF_ASC_NODE": 83.1957, "ARG_OF_PERICENTER": 231.0937, "MEAN_ANOMALY": 128.8155, "EPHEMERIS_TYPE": 0, "CLASSIFICATION_TYPE": "U", "NORAD_CAT_ID": 30624, "ELEMENT_SET_NO": 999, "REV_AT_EPOCH": 97692, "BSTAR": 0.0045631, "MEAN_MOTION_DOT": 0.00023454, "MEAN_MOTION_DDOT": 0}, "tle": {"line1": "1 30624U 99025ANF 25360.17828558  .00023454  00000+0  45631-2 0  9998", "line2": "2 30624  98.8856  83.1957 0023638 231.0937 128.8155 14.62901245976928"}}, "geometry": {"type": "Point", "coordinates": [-85.23966313705895, 51.25953732236975]}}, {"type": "Feature", "properties": {"norad_id": 30625, "name": "FENGYUN 1C DEB", "group": "fengyun-1c-debris", "lat": 50.116660657488644, "lon": 147.8971105713141, "alt_km": 770.7979967880256, "timestamp": "2025-12-26T11:25:45.471852+00:00", "meta": {"OBJECT_NAME": "FENGYUN 1C DEB", "OBJECT_ID": "1999-025ANG", "EPOCH": "2025-12-25T19:50:22.046784", "MEAN_MOTION": 14.41836602, "ECCENTRICITY": 0.00478226, "INCLINATION": 98.9281, "RA_OF_ASC_NODE": 316.3751, "ARG_OF_PERICENTER": 263.5888, "MEAN_ANOMALY": 95.9853, "EPHEMERIS_TYPE": 0, "CLASSIFICATION_TYPE": "U", "NORAD_CAT_ID": 30625, "ELEMENT_SET_NO": 999, "REV_AT_EPOCH": 96881, "BSTAR": 0.0040985259, "MEAN_MOTION_DOT": 0.00013562, "MEAN_MOTION_DDOT": 0}, "tle": {"line1": "1 30625U 99025ANG 25359.82664406  .00013562  00000+0  40985-2 0  9995", "line2": "2 30625  98.9281 316.3751 0047822 263.5888  95.9853 14.41836602968810"}}, "geometry": {"type": "Point", "coordinates": [147.8971105713141, 50.116660657488644]}}, {"type": "Feature", "properties": {"norad_id": 30628, "name": "FENGYUN 1C DEB", "group": "fengyun-1c-debris", "lat": 74.38304974117597, "lon": -117.91064896340124, "alt_km": 664.3069065042564, "timestamp": "2025-12-26T11:25:45.471862+00:00", "meta": {"OBJECT_NAME": "FENGYUN 1C DEB", "OBJECT_ID": "1999-025ANK", "EPOCH": "2025-12-25T12:11:51.186912", "MEAN_MOTION": 14.69413416, "ECCENTRICITY": 0.0021834, "INCLINATION": 99.3403, "RA_OF_ASC_NODE": 277.0567, "ARG_OF_PERICENTER": 204.5378, "MEAN_ANOMALY": 155.4786, "EPHEMERIS_TYPE": 0, "CLASSIFICATION_TYPE": "U", "NORAD_CAT_ID": 30628, "ELEMENT_SET_NO": 999, "REV_AT_EPOCH": 98658, "BSTAR": 0.0026436, "MEAN_MOTION_DOT": 0.00015672, "MEAN_MOTION_DDOT": 0}, "tle": {"line1": "1 30628U 99025ANK 25359.50823133  .00015672  00000+0  26436-2 0  9996", "line2": "2 30628  99.3403 277.0567 0021834 204.5378 155.4786 14.69413416986581"}}, "geometry": {"type": "Point", "coordinates": [-117.91064896340124, 74.38304974117597]}}, {"type": "Feature", "properties": {"norad_id": 30629, "name": "FENGYUN 1C DEB", "group": "fengyun-1c-debris", "lat": 58.40745574882178, "lon": -66.65306061761915, "alt_km": 684.1598186164847, "timestamp": "2025-12-26T11:25:45.471872+00:00", "meta": {"OBJECT_NAME": "FENGYUN 1C DEB", "OBJECT_ID": "1999-025ANL", "EPOCH": "2025-12-26T03:12:23.056416", "MEAN_MOTION": 14.59926554, "ECCENTRICITY": 0.0007351, "INCLINATION": 99.25, "RA_OF_ASC_NODE": 97.5995, "ARG_OF_PERICENTER": 168.404, "MEAN_ANOMALY": 312.2504, "EPHEMERIS_TYPE": 0, "CLASSIFICATION_TYPE": "U", "NORAD_CAT_ID": 30629, "ELEMENT_SET_NO": 999, "REV_AT_EPOCH": 98085, "BSTAR": 0.0029865, "MEAN_MOTION_DOT": 0.00014286, "MEAN_MOTION_DDOT": 0}, "tle": {"line1": "1 30629U 99025ANL 25360.13360019  .00014286  00000+0  29865-2 0  9996", "line2": "2 30629  99.2500  97.5995 0007351 168.4040 312.2504 14.59926554980857"}}, "geometry": {"type": "Point", "coordinates": [-66.65306061761915, 58.40745574882178]}}]}